{
  "type": "FeatureCollection",
  "features": [
    {
      "type": "Feature",
      "properties": {
        "norad_id": 66052,
        "name": "HRC MONOBLOCK CAMERA",
        "group": "stations",
        "lat": -50.1961415292714,
        "lon": 49.71210869372342,
        "alt_km": 410.135318811399,
        "timestamp": "2025-12-09T11:33:53.592681+00:00",
        "meta_object_name": "HRC MONOBLOCK CAMERA",
        "meta_object_id": "1998-067XR",
        "meta_epoch": "2025-12-09T02:44:20.184000",
        "meta_mean_motion": 15.53759866,
        "meta_eccentricity": 0.0003848,
        "meta_inclination": 51.6287,
        "meta_ra_of_asc_node": 159.5802,
        "meta_arg_of_pericenter": 169.4423,
        "meta_mean_anomaly": 190.6649,
        "meta_ephemeris_type": 0,
        "meta_classification_type": "U",
        "meta_norad_cat_id": 66052,
        "meta_element_set_no": 999,
        "meta_rev_at_epoch": 827,
        "meta_bstar": 0.00065126,
        "meta_mean_motion_dot": 0.00042294,
        "meta_mean_motion_ddot": 0,
        "tle_line1": "1 66052U 98067XR  25343.11412250  .00042294  00000+0  65126-3 0  9995",
        "tle_line2": "2 66052  51.6287 159.5802 0003848 169.4423 190.6649 15.53759866  8279"
      },
      "geometry": {
        "type": "Point",
        "coordinates": [
          49.71210869372342,
          -50.1961415292714
        ]
      }
    },
    {
      "type": "Feature",
      "properties": {
        "norad_id": 66174,
        "name": "HTV-X1",
        "group": "stations",
        "lat": -18.584350757155914,
        "lon": -5.941082070020376,
        "alt_km": 418.9918377729482,
        "timestamp": "2025-12-09T11:33:53.592705+00:00",
        "meta_object_name": "HTV-X1",
        "meta_object_id": "2025-241A",
        "meta_epoch": "2025-12-08T20:45:25.501536",
        "meta_mean_motion": 15.49428834,
        "meta_eccentricity": 0.00033811,
        "meta_inclination": 51.6308,
        "meta_ra_of_asc_node": 161.6653,
        "meta_arg_of_pericenter": 221.9847,
        "meta_mean_anomaly": 138.0883,
        "meta_ephemeris_type": 0,
        "meta_classification_type": "U",
        "meta_norad_cat_id": 66174,
        "meta_element_set_no": 999,
        "meta_rev_at_epoch": 51,
        "meta_bstar": 0.00022803662,
        "meta_mean_motion_dot": 0.00012323,
        "meta_mean_motion_ddot": 0,
        "tle_line1": "1 66174U 25241A   25342.86487849  .00012323  00000+0  22804-3 0  9997",
        "tle_line2": "2 66174  51.6308 161.6653 0003381 221.9847 138.0883 15.49428834   510"
      },
      "geometry": {
        "type": "Point",
        "coordinates": [
          -5.941082070020376,
          -18.584350757155914
        ]
      }
    },
    {
      "type": "Feature",
      "properties": {
        "norad_id": 66515,
        "name": "SZ-21 MODULE",
        "group": "stations",
        "lat": 35.56945491960003,
        "lon": 89.9659577098767,
        "alt_km": 379.5798491692358,
        "timestamp": "2025-12-09T11:33:53.592722+00:00",
        "meta_object_name": "SZ-21 MODULE",
        "meta_object_id": "2025-246C",
        "meta_epoch": "2025-12-09T03:37:53.464800",
        "meta_mean_motion": 15.62218572,
        "meta_eccentricity": 0.000628,
        "meta_inclination": 41.4773,
        "meta_ra_of_asc_node": 37.9323,
        "meta_arg_of_pericenter": 240.6924,
        "meta_mean_anomaly": 119.3288,
        "meta_ephemeris_type": 0,
        "meta_classification_type": "U",
        "meta_norad_cat_id": 66515,
        "meta_element_set_no": 999,
        "meta_rev_at_epoch": 388,
        "meta_bstar": 0.00034803,
        "meta_mean_motion_dot": 0.00031342,
        "meta_mean_motion_ddot": 0,
        "tle_line1": "1 66515U 25246C   25343.15131325  .00031342  00000+0  34803-3 0  9993",
        "tle_line2": "2 66515  41.4773  37.9323 0006280 240.6924 119.3288 15.62218572  3881"
      },
      "geometry": {
        "type": "Point",
        "coordinates": [
          89.9659577098767,
          35.56945491960003
        ]
      }
    },
    {
      "type": "Feature",
      "properties": {
        "norad_id": 66645,
        "name": "SHENZHOU-22",
        "group": "stations",
        "lat": -7.886604265374786,
        "lon": -134.49340520907006,
        "alt_km": 397.35012248356725,
        "timestamp": "2025-12-09T11:33:53.592740+00:00",
        "meta_object_name": "SHENZHOU-22",
        "meta_object_id": "2025-272A",
        "meta_epoch": "2025-12-08T14:45:28.776096",
        "meta_mean_motion": 15.58905517,
        "meta_eccentricity": 0.00091311,
        "meta_inclination": 41.4682,
        "meta_ra_of_asc_node": 41.7451,
        "meta_arg_of_pericenter": 357.4459,
        "meta_mean_anomaly": 2.6332,
        "meta_ephemeris_type": 0,
        "meta_classification_type": "U",
        "meta_norad_cat_id": 66645,
        "meta_element_set_no": 999,
        "meta_rev_at_epoch": 26300,
        "meta_bstar": 0.0003572809,
        "meta_mean_motion_dot": 0.0002832,
        "meta_mean_motion_ddot": 0,
        "tle_line1": "1 66645U 25272A   25342.61491639  .00028320  00000+0  35728-3 0  9992",
        "tle_line2": "2 66645  41.4682  41.7451 0009131 357.4459   2.6332 15.58905517263000"
      },
      "geometry": {
        "type": "Point",
        "coordinates": [
          -134.49340520907006,
          -7.886604265374786
        ]
      }
    },
    {
      "type": "Feature",
      "properties": {
        "norad_id": 66664,
        "name": "SOYUZ-MS 28",
        "group": "stations",
        "lat": -18.584395416676966,
        "lon": -5.941041262952057,
        "alt_km": 418.9918409499469,
        "timestamp": "2025-12-09T11:33:53.592756+00:00",
        "meta_object_name": "SOYUZ-MS 28",
        "meta_object_id": "2025-275A",
        "meta_epoch": "2025-12-08T20:45:25.500672",
        "meta_mean_motion": 15.49428834,
        "meta_eccentricity": 0.0003381,
        "meta_inclination": 51.6308,
        "meta_ra_of_asc_node": 161.6653,
        "meta_arg_of_pericenter": 221.9847,
        "meta_mean_anomaly": 138.0883,
        "meta_ephemeris_type": 0,
        "meta_classification_type": "U",
        "meta_norad_cat_id": 66664,
        "meta_element_set_no": 999,
        "meta_rev_at_epoch": 184,
        "meta_bstar": 0.00022804,
        "meta_mean_motion_dot": 0.00012323,
        "meta_mean_motion_ddot": 0,
        "tle_line1": "1 66664U 25275A   25342.86487848  .00012323  00000+0  22804-3 0  9997",
        "tle_line2": "2 66664  51.6308 161.6653 0003381 221.9847 138.0883 15.49428834  1841"
      },
      "geometry": {
        "type": "Point",
        "coordinates": [
          -5.941041262952057,
          -18.584395416676966
        ]
      }
    },
    {
      "type": "Feature",
      "properties": {
        "norad_id": 66906,
        "name": "1998-067XS",
        "group": "stations",
        "lat": -31.958192625162543,
        "lon": 8.194244412755271,
        "alt_km": 417.37860404835374,
        "timestamp": "2025-12-09T11:33:53.592767+00:00",
        "meta_object_name": "1998-067XS",
        "meta_object_id": "1998-067XS",
        "meta_epoch": "2025-12-08T22:13:59.028960",
        "meta_mean_motion": 15.50272351,
        "meta_eccentricity": 0.0004021,
        "meta_inclination": 51.6297,
        "meta_ra_of_asc_node": 161.3264,
        "meta_arg_of_pericenter": 185.5281,
        "meta_mean_anomaly": 174.5664,
        "meta_ephemeris_type": 0,
        "meta_classification_type": "U",
        "meta_norad_cat_id": 66906,
        "meta_element_set_no": 999,
        "meta_rev_at_epoch": 102,
        "meta_bstar": 0.000538,
        "meta_mean_motion_dot": 0.0003067,
        "meta_mean_motion_ddot": 0,
        "tle_line1": "1 66906U 98067XS  25342.92637765  .00030670  00000+0  53800-3 0  9992",
        "tle_line2": "2 66906  51.6297 161.3264 0004021 185.5281 174.5664 15.50272351  1026"
      },
      "geometry": {
        "type": "Point",
        "coordinates": [
          8.194244412755271,
          -31.958192625162543
        ]
      }
    },
    {
      "type": "Feature",
      "properties": {
        "norad_id": 66907,
        "name": "1998-067XT",
        "group": "stations",
        "lat": -36.47227442981229,
        "lon": 14.407446712790863,
        "alt_km": 415.1259916287245,
        "timestamp": "2025-12-09T11:33:53.592777+00:00",
        "meta_object_name": "1998-067XT",
        "meta_object_id": "1998-067XT",
        "meta_epoch": "2025-12-08T19:06:53.694720",
        "meta_mean_motion": 15.50762002,
        "meta_eccentricity": 0.00049716,
        "meta_inclination": 51.6302,
        "meta_ra_of_asc_node": 161.9586,
        "meta_arg_of_pericenter": 204.3216,
        "meta_mean_anomaly": 155.7539,
        "meta_ephemeris_type": 0,
        "meta_classification_type": "U",
        "meta_norad_cat_id": 66907,
        "meta_element_set_no": 999,
        "meta_rev_at_epoch": 100,
        "meta_bstar": 0.0012614232,
        "meta_mean_motion_dot": 0.00074227,
        "meta_mean_motion_ddot": 0,
        "tle_line1": "1 66907U 98067XT  25342.79645480  .00074227  00000+0  12614-2 0  9994",
        "tle_line2": "2 66907  51.6302 161.9586 0004971 204.3216 155.7539 15.50762002  1006"
      },
      "geometry": {
        "type": "Point",
        "coordinates": [
          14.407446712790863,
          -36.47227442981229
        ]
      }
    }
  ]
}